1 26626U 00077A   23002.17515449 -.00000080  00000-0  00000+0 0  9997
2 26626  60.9104 303.6521 0015679 303.6531  56.1854  1.58823065 94474
1 26626U 00077A   23002.17515449 -.00000080  00000-0  00000-0 0  9998
2 26626  60.9104 303.6521 0015679 303.6531  56.1854  1.58823065 94452
1 26626U 00077A   23004.69367432 -.00000070  00000-0  00000+0 0  9992
2 26626  60.9079 303.5996 0015574 304.0248  55.8207  1.58823190 94516
1 26626U 00077A   23004.69367432 -.00000070  00000-0  00000-0 0  9993
2 26626  60.9079 303.5996 0015574 304.0248  55.8207  1.58823190 94493
1 26626U 00077A   23006.58257172 -.00000058  00000-0  00000-0 0  9998
2 26626  60.9059 303.5603 0015526 304.1862  55.6705  1.58823271 94521
1 26626U 00077A   23007.21221161 -.00000055  00000-0  00000+0 0  9994
2 26626  60.9069 303.5472 0015367 304.8485  55.0149  1.58823342 94555
1 26626U 00077A   23007.21221161 -.00000055  00000-0  00000-0 0  9995
2 26626  60.9069 303.5472 0015367 304.8485  55.0149  1.58823342 94533
1 26626U 00077A   23009.73073918 -.00000043  00000-0  00000+0 0  9995
2 26626  60.9045 303.4947 0015416 305.0499  54.8281  1.58823317 94598
1 26626U 00077A   23009.73073918 -.00000043  00000-0  00000-0 0  9996
2 26626  60.9045 303.4947 0015416 305.0499  54.8281  1.58823317 94576
1 26626U 00077A   23010.36036895 -.00000040  00000-0  00000-0 0  9997
2 26626  60.9037 303.4817 0015426 304.9843  54.8962  1.58823341 94589
1 26626U 00077A   23012.24926830 -.00000036  00000-0  00000+0 0  9997
2 26626  60.9006 303.4422 0015187 306.1767  53.7121  1.58823203 94638
1 26626U 00077A   23012.24926830 -.00000036  00000-0  00000-0 0  9998
2 26626  60.9006 303.4422 0015187 306.1767  53.7121  1.58823203 94616
1 26626U 00077A   23012.87888705 -.00000035  00000-0  00000-0 0  9994
2 26626  60.9004 303.4290 0015371 305.8931  53.9935  1.58823133 94629
1 26626U 00077A   23014.13813789 -.00000035  00000-0  00000-0 0  9995
2 26626  60.8991 303.4026 0015385 306.1705  53.7149  1.58823075 94640
1 26626U 00077A   23015.39739462 -.00000037  00000-0  00000+0 0  9990
2 26626  60.8976 303.3763 0015325 307.3014  52.5840  1.58822971 94683
1 26626U 00077A   23015.39739462 -.00000037  00000-0  00000-0 0  9991
2 26626  60.8976 303.3763 0015325 307.3014  52.5840  1.58822971 94661
1 26626U 00077A   23016.02701990 -.00000037  00000-0  00000-0 0  9997
2 26626  60.8969 303.3631 0015324 307.4035  52.4809  1.58822925 94674
1 26626U 00077A   23017.91589753 -.00000038  00000-0  00000+0 0  9997
2 26626  60.8949 303.3232 0015373 307.3514  52.5316  1.58822803 94729
1 26626U 00077A   23017.91589753 -.00000038  00000-0  00000-0 0  9998
2 26626  60.8949 303.3232 0015373 307.3514  52.5316  1.58822803 94707
1 26626U 00077A   23019.17515107 -.00000037  00000-0  00000-0 0  9999
2 26626  60.8936 303.2966 0015481 306.9541  52.9300  1.58822759 94720
1 26626U 00077A   23020.43442331 -.00000036  00000-0  00000+0 0  9996
2 26626  60.8919 303.2699 0015258 307.5921  52.3007  1.58822777 94767
1 26626U 00077A   23023.58259205 -.00000043  00000-0  00000+0 0  9999
2 26626  60.8882 303.2031 0015027 308.3819  51.5271  1.58822828 94812
1 26626U 00077A   23024.21222212 -.00000046  00000-0  00000-0 0  9992
2 26626  60.8875 303.1898 0014979 308.4793  51.4310  1.58822865 94804
1 26626U 00077A   23026.10110308 -.00000059  00000-0  00000+0 0  9997
2 26626  60.8854 303.1499 0014832 308.7825  51.1271  1.58822995 94857
1 26626U 00077A   23026.10110308 -.00000059  00000-0  00000-0 0  9998
2 26626  60.8854 303.1499 0014832 308.7825  51.1271  1.58822995 94835
1 26626U 00077A   23026.73072803 -.00000062  00000-0  00000-0 0  9998
2 26626  60.8847 303.1366 0014788 308.8894  51.0190  1.58823040 94849
1 26626U 00077A   23027.36035545 -.00000065  00000-0  00000-0 0  9993
2 26626  60.8840 303.1233 0014705 309.2407  50.6671  1.58823059 94859
1 26626U 00077A   23027.98997371 -.00000066  00000-0  00000-0 0  9996
2 26626  60.8833 303.1101 0014760 308.8583  51.0467  1.58823136 94861
1 26626U 00077A   23029.87885194 -.00000065  00000-0  00000+0 0  9993
2 26626  60.8813 303.0704 0014631 309.1477  50.7567  1.58823264 94915
1 26626U 00077A   23029.87885194 -.00000065  00000-0  00000-0 0  9994
2 26626  60.8813 303.0704 0014631 309.1477  50.7567  1.58823264 94892
1 26626U 00077A   23031.13810873 -.00000059  00000-0  00000-0 0  9991
2 26626  60.8800 303.0440 0014562 309.2762  50.6311  1.58823352 94913
1 26626U 00077A   23032.39737133 -.00000051  00000-0  00000+0 0  9998
2 26626  60.8788 303.0177 0014486 309.5669  50.3465  1.58823393 94955
1 26626U 00077A   23032.39737133 -.00000051  00000-0  00000-0 0  9999
2 26626  60.8788 303.0177 0014486 309.5669  50.3465  1.58823393 94933
1 26626U 00077A   23033.65663535 -.00000043  00000-0  00000-0 0  9994
2 26626  60.8776 302.9914 0014441 309.8680  50.0532  1.58823449 94950
1 26626U 00077A   23034.28626636 -.00000039  00000-0  00000-0 0  9990
2 26626  60.8771 302.9782 0014447 309.8591  50.0659  1.58823482 94963
1 26626U 00077A   23034.91589935 -.00000035  00000-0  00000+0 0  9995
2 26626  60.8765 302.9651 0014423 309.9982  49.9310  1.58823483 94995
1 26626U 00077A   23034.91589935 -.00000035  00000-0  00000-0 0  9996
2 26626  60.8765 302.9651 0014423 309.9982  49.9310  1.58823483 94973
1 26626U 00077A   23037.43442432 -.00000022  00000-0  00000+0 0  9991
2 26626  60.8742 302.9125 0014396 310.5747  49.3684  1.58823461 95032
1 26626U 00077A   23037.43442432 -.00000022  00000-0  00000-0 0  9992
2 26626  60.8742 302.9125 0014396 310.5747  49.3684  1.58823461 95010
1 26626U 00077A   23038.06405181 -.00000020  00000-0  00000-0 0  9990
2 26626  60.8737 302.8993 0014414 310.5756  49.3692  1.58823454 95029
1 26626U 00077A   23039.32331026 -.00000016  00000-0  00000-0 0  9991
2 26626  60.8732 302.8728 0014277 310.9675  48.9809  1.58823389 95045
1 26626U 00077A   23039.95293565 -.00000015  00000-0  00000+0 0  9993
2 26626  60.8726 302.8596 0014275 311.0634  48.8850  1.58823362 95075
1 26626U 00077A   23039.95293565 -.00000015  00000-0  00000-0 0  9994
2 26626  60.8726 302.8596 0014275 311.0634  48.8850  1.58823362 95053
1 26626U 00077A   23040.58256140 -.00000015  00000-0  00000-0 0  9993
2 26626  60.8720 302.8464 0014253 311.2613  48.6869  1.58823327 95066
1 26626U 00077A   23043.73069118 -.00000015  00000-0  00000+0 0  9999
2 26626  60.8688 302.7801 0014031 312.6932  47.2515  1.58823067 95138
1 26626U 00077A   23043.73069118 -.00000015  00000-0  00000-0 0  9990
2 26626  60.8688 302.7801 0014031 312.6932  47.2515  1.58823067 95116
1 26626U 00077A   23044.98994307 -.00000015  00000-0  00000-0 0  9995
2 26626  60.8676 302.7535 0014005 312.8579  47.0858  1.58822989 95139
1 26626U 00077A   23046.24920080 -.00000014  00000-0  00000+0 0  9991
2 26626  60.8661 302.7269 0013968 313.0914  46.8542  1.58822906 95170
1 26626U 00077A   23046.24920080 -.00000014  00000-0  00000-0 0  9992
2 26626  60.8661 302.7269 0013968 313.0914  46.8542  1.58822906 95158
1 26626U 00077A   23046.87883161 -.00000013  00000-0  00000-0 0  9998
2 26626  60.8655 302.7136 0013939 313.2164  46.7312  1.58822865 95160
1 26626U 00077A   23048.13809610 -.00000011  00000-0  00000-0 0  9994
2 26626  60.8640 302.6869 0013859 313.4478  46.5055  1.58822820 95182
1 26626U 00077A   23048.76772829 -.00000011  00000-0  00000+0 0  9993
2 26626  60.8633 302.6734 0013803 313.5295  46.4269  1.58822816 95217
1 26626U 00077A   23048.76772829 -.00000011  00000-0  00000-0 0  9994
2 26626  60.8633 302.6734 0013803 313.5295  46.4269  1.58822816 95194
1 26626U 00077A   23050.02699158 -.00000014  00000-0  00000-0 0  9992
2 26626  60.8619 302.6467 0013729 313.6672  46.2938  1.58822830 95218
1 26626U 00077A   23051.28624866 -.00000019  00000-0  00000+0 0  9999
2 26626  60.8605 302.6199 0013637 313.6519  46.3109  1.58822914 95251
1 26626U 00077A   23051.28624866 -.00000019  00000-0  00000-0 0  9990
2 26626  60.8606 302.6199 0013643 313.6561  46.3066  1.58822910 95232
1 26626U 00077A   23051.91587375 -.00000023  00000-0  00000-0 0  9998
2 26626  60.8597 302.6065 0013599 313.5388  46.4234  1.58822986 95241
1 26626U 00077A   23051.91587541 -.00000023  00000-0  00000-0 0  9993
2 26626  60.8599 302.6065 0013593 313.6986  46.2639  1.58822952 95242
1 26626U 00077A   23053.17512276 -.00000032  00000-0  00000-0 0  9996
2 26626  60.8583 302.5798 0013520 313.6242  46.3350  1.58823069 95265
1 26626U 00077A   23055.06399017 -.00000041  00000-0  00000+0 0  9991
2 26626  60.8562 302.5398 0013399 313.7746  46.1776  1.58823215 95311
1 26626U 00077A   23055.06399017 -.00000041  00000-0  00000-0 0  9992
2 26626  60.8562 302.5398 0013399 313.7746  46.1776  1.58823215 95298
1 26626U 00077A   23055.69361446 -.00000042  00000-0  00000-0 0  9997
2 26626  60.8556 302.5265 0013311 313.9550  45.9957  1.58823249 95300
1 26626U 00077A   23056.95286270 -.00000041  00000-0  00000-0 0  9997
2 26626  60.8543 302.4999 0013214 314.1289  45.8197  1.58823324 95324
1 26626U 00077A   23058.21212069 -.00000036  00000-0  00000+0 0  9996
2 26626  60.8530 302.4734 0013001 314.6566  45.2943  1.58823359 95369
1 26626U 00077A   23058.21212069 -.00000036  00000-0  00000-0 0  9997
2 26626  60.8530 302.4734 0013001 314.6566  45.2943  1.58823359 95347
1 26626U 00077A   23058.84174900 -.00000032  00000-0  00000-0 0  9993
2 26626  60.8524 302.4602 0012955 314.7640  45.1884  1.58823388 95351
1 26626U 00077A   23060.10100834 -.00000024  00000-0  00000-0 0  9991
2 26626  60.8512 302.4338 0012868 314.9691  44.9879  1.58823442 95379
1 26626U 00077A   23061.98990067 -.00000013  00000-0  00000+0 0  9990
2 26626  60.8495 302.3942 0012765 315.2806  44.6859  1.58823490 95421
1 26626U 00077A   23061.98990067 -.00000013  00000-0  00000-0 0  9991
2 26626  60.8495 302.3942 0012765 315.2806  44.6859  1.58823490 95409
1 26626U 00077A   23063.24916126 -.00000006  00000-0  00000-0 0  9998
2 26626  60.8483 302.3678 0012709 315.4936  44.4788  1.58823499 95426
1 26626U 00077A   23063.87879127 -.00000003  00000-0  00000-0 0  9993
2 26626  60.8478 302.3547 0012667 315.6581  44.3171  1.58823493 95436
